{"type": "FeatureCollection", "features": [ {"type": "Feature", "properties": {"norad_id": 66385, "name": "STARLINK-35659", "group": "last-30-days", "lat": 53.13960704098686, "lon": 38.71756209241892, "alt_km": 439.20043948227703, "timestamp": "2025-12-03T08:58:44.776323+00:00", "meta": {"OBJECT_NAME": "STARLINK-35659", "OBJECT_ID": "2025-257F", "EPOCH": "2025-12-03T04:00:01.998720", "MEAN_MOTION": 15.39585813, "ECCENTRICITY": 0.0001422, "INCLINATION": 53.1591, "RA_OF_ASC_NODE": 309.7067, "ARG_OF_PERICENTER": 96.9328, "MEAN_ANOMALY": 282.6746, "EPHEMERIS_TYPE": 0, "CLASSIFICATION_TYPE": "U", "NORAD_CAT_ID": 66385, "ELEMENT_SET_NO": 999, "REV_AT_EPOCH": 495, "BSTAR": 0.00060613, "MEAN_MOTION_DOT": 0.00023894, "MEAN_MOTION_DDOT": 0}, "tle": {"line1": "1 66385U 25257F   25337.16668980  .00023894  00000+0  60613-3 0  9997", "line2": "2 66385  53.1591 309.7067 0001422  96.9328 282.6746 15.39585813  4953"}}, "geometry": {"type": "Point", "coordinates": [38.71756209241892, 53.13960704098686]}}, {"type": "Feature", "properties": {"norad_id": 66386, "name": "STARLINK-35651", "group": "last-30-days", "lat": 34.84799812084, "lon": 97.17275521232456, "alt_km": 431.3749456092828, "timestamp": "2025-12-03T08:58:44.776333+00:00", "meta": {"OBJECT_NAME": "STARLINK-35651", "OBJECT_ID": "2025-257G", "EPOCH": "2025-12-03T04:00:01.998720", "MEAN_MOTION": 15.44220409, "ECCENTRICITY": 0.0001152, "INCLINATION": 53.1592, "RA_OF_ASC_NODE": 309.6241, "ARG_OF_PERICENTER": 84.9277, "MEAN_ANOMALY": 335.9279, "EPHEMERIS_TYPE": 0, "CLASSIFICATION_TYPE": "U", "NORAD_CAT_ID": 66386, "ELEMENT_SET_NO": 999, "REV_AT_EPOCH": 495, "BSTAR": -0.04994, "MEAN_MOTION_DOT": -0.02068814, "MEAN_MOTION_DDOT": 0}, "tle": {"line1": "1 66386U 25257G   25337.16668980 -.02068814  00000+0 -49940-1 0  9991", "line2": "2 66386  53.1592 309.6241 0001152  84.9277 335.9279 15.44220409  4954"}}, "geometry": {"type": "Point", "coordinates": [97.17275521232456, 34.84799812084]}}, {"type": "Feature", "properties": {"norad_id": 66387, "name": "STARLINK-35661", "group": "last-30-days", "lat": 33.56389409573637, "lon": 98.806488632509, "alt_km": 431.6124890710953, "timestamp": "2025-12-03T08:58:44.776344+00:00", "meta": {"OBJECT_NAME": "STARLINK-35661", "OBJECT_ID": "2025-257H", "EPOCH": "2025-12-03T04:00:01.998720", "MEAN_MOTION": 15.44211001, "ECCENTRICITY": 0.0001121, "INCLINATION": 53.1594, "RA_OF_ASC_NODE": 309.6212, "ARG_OF_PERICENTER": 88.6668, "MEAN_ANOMALY": 334.0602, "EPHEMERIS_TYPE": 0, "CLASSIFICATION_TYPE": "U", "NORAD_CAT_ID": 66387, "ELEMENT_SET_NO": 999, "REV_AT_EPOCH": 495, "BSTAR": -0.050032, "MEAN_MOTION_DOT": -0.0207159, "MEAN_MOTION_DDOT": 0}, "tle": {"line1": "1 66387U 25257H   25337.16668980 -.02071590  00000+0 -50032-1 0  9991", "line2": "2 66387  53.1594 309.6212 0001121  88.6668 334.0602 15.44211001  4954"}}, "geometry": {"type": "Point", "coordinates": [98.806488632509, 33.56389409573637]}}, {"type": "Feature", "properties": {"norad_id": 66388, "name": "STARLINK-35647", "group": "last-30-days", "lat": 24.545184767262285, "lon": 108.5894489722204, "alt_km": 424.8916827081448, "timestamp": "2025-12-03T08:58:44.776356+00:00", "meta": {"OBJECT_NAME": "STARLINK-35647", "OBJECT_ID": "2025-257J", "EPOCH": "2025-12-03T04:00:01.998720", "MEAN_MOTION": 15.4706062, "ECCENTRICITY": 0.0001027, "INCLINATION": 53.159, "RA_OF_ASC_NODE": 309.6003, "ARG_OF_PERICENTER": 85.514, "MEAN_ANOMALY": 347.4982, "EPHEMERIS_TYPE": 0, "CLASSIFICATION_TYPE": "U", "NORAD_CAT_ID": 66388, "ELEMENT_SET_NO": 999, "REV_AT_EPOCH": 495, "BSTAR": -0.045463, "MEAN_MOTION_DOT": -0.02076863, "MEAN_MOTION_DDOT": 0}, "tle": {"line1": "1 66388U 25257J   25337.16668980 -.02076863  00000+0 -45463-1 0  9992", "line2": "2 66388  53.1590 309.6003 0001027  85.5140 347.4982 15.47060620  4956"}}, "geometry": {"type": "Point", "coordinates": [108.5894489722204, 24.545184767262285]}}, {"type": "Feature", "properties": {"norad_id": 66389, "name": "STARLINK-35694", "group": "last-30-days", "lat": 19.918101522250414, "lon": 112.8342857015634, "alt_km": 416.3430173216957, "timestamp": "2025-12-03T08:58:44.776367+00:00", "meta": {"OBJECT_NAME": "STARLINK-35694", "OBJECT_ID": "2025-257K", "EPOCH": "2025-12-03T03:40:10.970400", "MEAN_MOTION": 15.49284998, "ECCENTRICITY": 0.0001704, "INCLINATION": 53.159, "RA_OF_ASC_NODE": 309.6562, "ARG_OF_PERICENTER": 84.6284, "MEAN_ANOMALY": 275.4919, "EPHEMERIS_TYPE": 0, "CLASSIFICATION_TYPE": "U", "NORAD_CAT_ID": 66389, "ELEMENT_SET_NO": 999, "REV_AT_EPOCH": 489, "BSTAR": 0.0007044, "MEAN_MOTION_DOT": 0.0003889, "MEAN_MOTION_DDOT": 0}, "tle": {"line1": "1 66389U 25257K   25337.15290475  .00038890  00000+0  70440-3 0  9991", "line2": "2 66389  53.1590 309.6562 0001704  84.6284 275.4919 15.49284998  4899"}}, "geometry": {"type": "Point", "coordinates": [112.8342857015634, 19.918101522250414]}}, {"type": "Feature", "properties": {"norad_id": 66390, "name": "STARLINK-35665", "group": "last-30-days", "lat": -7.414020377843814, "lon": 134.12533593331196, "alt_km": 420.4094647799693, "timestamp": "2025-12-03T08:58:44.776377+00:00", "meta": {"OBJECT_NAME": "STARLINK-35665", "OBJECT_ID": "2025-257L", "EPOCH": "2025-12-03T03:31:18.139872", "MEAN_MOTION": 15.49342842, "ECCENTRICITY": 0.0001364, "INCLINATION": 53.1588, "RA_OF_ASC_NODE": 309.6142, "ARG_OF_PERICENTER": 93.2305, "MEAN_ANOMALY": 266.886, "EPHEMERIS_TYPE": 0, "CLASSIFICATION_TYPE": "U", "NORAD_CAT_ID": 66390, "ELEMENT_SET_NO": 999, "REV_AT_EPOCH": 499, "BSTAR": 0.001874, "MEAN_MOTION_DOT": 0.00105316, "MEAN_MOTION_DDOT": 0}, "tle": {"line1": "1 66390U 25257L   25337.14673773  .00105316  00000+0  18740-2 0  9990", "line2": "2 66390  53.1588 309.6142 0001364  93.2305 266.8860 15.49342842  4997"}}, "geometry": {"type": "Point", "coordinates": [134.12533593331196, -7.414020377843814]}}, {"type": "Feature", "properties": {"norad_id": 66391, "name": "STARLINK-35656", "group": "last-30-days", "lat": -9.01965646047855, "lon": 135.34789407259026, "alt_km": 449.8440709807519, "timestamp": "2025-12-03T08:58:44.776387+00:00", "meta": {"OBJECT_NAME": "STARLINK-35656", "OBJECT_ID": "2025-257M", "EPOCH": "2025-12-03T04:00:01.998720", "MEAN_MOTION": 15.39591037, "ECCENTRICITY": 0.000154, "INCLINATION": 53.1592, "RA_OF_ASC_NODE": 309.4906, "ARG_OF_PERICENTER": 68.111, "MEAN_ANOMALY": 52.6811, "EPHEMERIS_TYPE": 0, "CLASSIFICATION_TYPE": "U", "NORAD_CAT_ID": 66391, "ELEMENT_SET_NO": 999, "REV_AT_EPOCH": 505, "BSTAR": 0.00072848, "MEAN_MOTION_DOT": 0.00028821, "MEAN_MOTION_DDOT": 0}, "tle": {"line1": "1 66391U 25257M   25337.16668980  .00028821  00000+0  72848-3 0  9992", "line2": "2 66391  53.1592 309.4906 0001540  68.1110  52.6811 15.39591037  5056"}}, "geometry": {"type": "Point", "coordinates": [135.34789407259026, -9.01965646047855]}}, {"type": "Feature", "properties": {"norad_id": 66392, "name": "STARLINK-35671", "group": "last-30-days", "lat": 21.238334174748616, "lon": 111.66166185667316, "alt_km": 426.9284868736222, "timestamp": "2025-12-03T08:58:44.776402+00:00", "meta": {"OBJECT_NAME": "STARLINK-35671", "OBJECT_ID": "2025-257N", "EPOCH": "2025-12-03T04:00:01.998720", "MEAN_MOTION": 15.46556095, "ECCENTRICITY": 0.0001073, "INCLINATION": 53.1591, "RA_OF_ASC_NODE": 309.5898, "ARG_OF_PERICENTER": 86.9853, "MEAN_ANOMALY": 350.7579, "EPHEMERIS_TYPE": 0, "CLASSIFICATION_TYPE": "U", "NORAD_CAT_ID": 66392, "ELEMENT_SET_NO": 999, "REV_AT_EPOCH": 495, "BSTAR": -0.046326, "MEAN_MOTION_DOT": -0.0207909, "MEAN_MOTION_DDOT": 0}, "tle": {"line1": "1 66392U 25257N   25337.16668980 -.02079090  00000+0 -46326-1 0  9991", "line2": "2 66392  53.1591 309.5898 0001073  86.9853 350.7579 15.46556095  4954"}}, "geometry": {"type": "Point", "coordinates": [111.66166185667316, 21.238334174748616]}}, {"type": "Feature", "properties": {"norad_id": 66393, "name": "STARLINK-35652", "group": "last-30-days", "lat": 18.475963420842348, "lon": 114.08683684809084, "alt_km": 416.1753800326751, "timestamp": "2025-12-03T08:58:44.776413+00:00", "meta": {"OBJECT_NAME": "STARLINK-35652", "OBJECT_ID": "2025-257P", "EPOCH": "2025-12-03T03:39:42.611328", "MEAN_MOTION": 15.49331008, "ECCENTRICITY": 0.0001591, "INCLINATION": 53.159, "RA_OF_ASC_NODE": 309.6544, "ARG_OF_PERICENTER": 102.8578, "MEAN_ANOMALY": 257.2609, "EPHEMERIS_TYPE": 0, "CLASSIFICATION_TYPE": "U", "NORAD_CAT_ID": 66393, "ELEMENT_SET_NO": 999, "REV_AT_EPOCH": 489, "BSTAR": 0.00096331, "MEAN_MOTION_DOT": 0.00053537, "MEAN_MOTION_DDOT": 0}, "tle": {"line1": "1 66393U 25257P   25337.15257652  .00053537  00000+0  96331-3 0  9998", "line2": "2 66393  53.1590 309.6544 0001591 102.8578 257.2609 15.49331008  4896"}}, "geometry": {"type": "Point", "coordinates": [114.08683684809084, 18.475963420842348]}}, {"type": "Feature", "properties": {"norad_id": 66394, "name": "STARLINK-35672", "group": "last-30-days", "lat": 15.477522041390316, "lon": 116.60437310713611, "alt_km": 416.8246187781697, "timestamp": "2025-12-03T08:58:44.776423+00:00", "meta": {"OBJECT_NAME": "STARLINK-35672", "OBJECT_ID": "2025-257Q", "EPOCH": "2025-12-03T03:38:43.306368", "MEAN_MOTION": 15.49341907, "ECCENTRICITY": 0.0001486, "INCLINATION": 53.1589, "RA_OF_ASC_NODE": 309.6496, "ARG_OF_PERICENTER": 92.0913, "MEAN_ANOMALY": 268.0267, "EPHEMERIS_TYPE": 0, "CLASSIFICATION_TYPE": "U", "NORAD_CAT_ID": 66394, "ELEMENT_SET_NO": 999, "REV_AT_EPOCH": 489, "BSTAR": 0.0017137, "MEAN_MOTION_DOT": 0.00096155, "MEAN_MOTION_DDOT": 0}, "tle": {"line1": "1 66394U 25257Q   25337.15189012  .00096155  00000+0  17137-2 0  9992", "line2": "2 66394  53.1589 309.6496 0001486  92.0913 268.0267 15.49341907  4896"}}, "geometry": {"type": "Point", "coordinates": [116.60437310713611, 15.477522041390316]}}]}